[
    {
        "Altitude(m)": 611967.1861052555,
        "Argument of Periapsis(deg)": 0.0,
        "Eccentricity": 0.0,
        "Inclination(deg)": 60.0,
        "Latitude(deg)": 59.14018331974667,
        "Longitude(deg)": 21.091898617373477,
        "Mean Anomaly(deg)": 98.18179999999998,
        "RAAN(deg)": 15.0,
        "Satellite Name": "Test1 72",
        "Satellite Number": 72,
        "Semi-Major Axis(m)": 6980739.136638005,
        "Time(s)": 0
    },
    {
        "Altitude(m)": 611934.3866057137,
        "Argument of Periapsis(deg)": 0.00010418945913296404,
        "Eccentricity": 0.0,
        "Inclination(deg)": 60.0,
        "Latitude(deg)": 58.98654737010129,
        "Longitude(deg)": 22.21514605052801,
        "Mean Anomaly(deg)": 98.80190614546183,
        "RAAN(deg)": 14.999579950860259,
        "Satellite Name": "Test1 72",
        "Satellite Number": 72,
        "Semi-Major Axis(m)": 6980739.136638005,
        "Time(s)": 10
    }
]